41186,ORBCOMM FM115,2015,98.6,172.0,+,47.0,Active,1,LEO,USA,ORBCOMM,Commercial,Communications,Falcon,1 41186U 15081H   24073.35306902  .00000985  00000+0  23668-3 0  9998,2 41186  46.9992  67.7915 0000261 280.9069  79.1788 14.60441142440363,14.60441142,2.61e-05,LEO
41187,ORBCOMM FM108,2015,98.88,172.0,+,47.0,Active,1,LEO,USA,ORBCOMM,Commercial,Communications,Falcon,1 41187U 15081J   24073.44197160  .00000971  00000+0  25448-3 0  9996,2 41187  47.0042 119.8466 0002816 333.5864  26.4877 14.56350693439590,14.56350693,0.0002816,LEO
41188,ORBCOMM FM117,2015,98.88,172.0,+,47.0,Active,1,LEO,USA,ORBCOMM,Commercial,Communications,Falcon,1 41188U 15081K   24073.40788210  .00000966  00000+0  25318-3 0  9995,2 41188  47.0001 118.9213 0003087 346.4582  13.6219 14.56354784439635,14.56354784,0.0003087,LEO
41189,ORBCOMM FM116,2015,98.88,172.0,+,47.0,Active,1,LEO,USA,ORBCOMM,Commercial,Communications,Falcon,1 41189U 15081L   24073.39738266  .00000921  00000+0  24331-3 0  9995,2 41189  47.0003 208.7873 0001338 121.2903 238.8113 14.56306656438448,14.56306656,0.0001338,LEO
